{
  "type": "FeatureCollection",
  "features": [
    {
      "type": "Feature",
      "properties": {
        "norad_id": 66858,
        "name": "STARLINK-35118",
        "group": "last-30-days",
        "lat": 17.340725494894187,
        "lon": -75.66570274755291,
        "alt_km": 295.0827712164046,
        "timestamp": "2025-12-12T11:38:30.171620+00:00",
        "meta_object_name": "STARLINK-35118",
        "meta_object_id": "2025-281L",
        "meta_epoch": "2025-12-12T04:00:01.998720",
        "meta_mean_motion": 15.92582892,
        "meta_eccentricity": 0.0001713,
        "meta_inclination": 43.0017,
        "meta_ra_of_asc_node": 125.8926,
        "meta_arg_of_pericenter": 272.1778,
        "meta_mean_anomaly": 214.6407,
        "meta_ephemeris_type": 0,
        "meta_classification_type": "U",
        "meta_norad_cat_id": 66858,
        "meta_element_set_no": 999,
        "meta_rev_at_epoch": 130,
        "meta_bstar": -0.0034635,
        "meta_mean_motion_dot": -0.01227108,
        "meta_mean_motion_ddot": 0.00044174,
        "tle_line1": "1 66858U 25281L   25346.16668980 -.01227108  44174-3 -34635-2 0  9994",
        "tle_line2": "2 66858  43.0017 125.8926 0001713 272.1778 214.6407 15.92582892  1308"
      },
      "geometry": {
        "type": "Point",
        "coordinates": [
          -75.66570274755291,
          17.340725494894187
        ]
      }
    },
    {
      "type": "Feature",
      "properties": {
        "norad_id": 66859,
        "name": "STARLINK-35646",
        "group": "last-30-days",
        "lat": 15.580596291564817,
        "lon": -73.50652526265499,
        "alt_km": 295.194908989808,
        "timestamp": "2025-12-12T11:38:30.171632+00:00",
        "meta_object_name": "STARLINK-35646",
        "meta_object_id": "2025-281M",
        "meta_epoch": "2025-12-12T04:00:01.998720",
        "meta_mean_motion": 15.92631521,
        "meta_eccentricity": 0.0001825,
        "meta_inclination": 43.0018,
        "meta_ra_of_asc_node": 125.886,
        "meta_arg_of_pericenter": 272.6157,
        "meta_mean_anomaly": 216.8651,
        "meta_ephemeris_type": 0,
        "meta_classification_type": "U",
        "meta_norad_cat_id": 66859,
        "meta_element_set_no": 999,
        "meta_rev_at_epoch": 131,
        "meta_bstar": -0.0034234,
        "meta_mean_motion_dot": -0.01216139,
        "meta_mean_motion_ddot": 0.00043475,
        "tle_line1": "1 66859U 25281M   25346.16668980 -.01216139  43475-3 -34234-2 0  9995",
        "tle_line2": "2 66859  43.0018 125.8860 0001825 272.6157 216.8651 15.92631521  1317"
      },
      "geometry": {
        "type": "Point",
        "coordinates": [
          -73.50652526265499,
          15.580596291564817
        ]
      }
    },
    {
      "type": "Feature",
      "properties": {
        "norad_id": 66860,
        "name": "STARLINK-35987",
        "group": "last-30-days",
        "lat": 6.173576779779206,
        "lon": -62.796929997343575,
        "alt_km": 295.39586803257953,
        "timestamp": "2025-12-12T11:38:30.171644+00:00",
        "meta_object_name": "STARLINK-35987",
        "meta_object_id": "2025-281N",
        "meta_epoch": "2025-12-12T04:00:01.998720",
        "meta_mean_motion": 15.92937201,
        "meta_eccentricity": 0.0001786,
        "meta_inclination": 43.0018,
        "meta_ra_of_asc_node": 125.8512,
        "meta_arg_of_pericenter": 269.6965,
        "meta_mean_anomaly": 233.5621,
        "meta_ephemeris_type": 0,
        "meta_classification_type": "U",
        "meta_norad_cat_id": 66860,
        "meta_element_set_no": 999,
        "meta_rev_at_epoch": 131,
        "meta_bstar": -0.0034335,
        "meta_mean_motion_dot": -0.01239221,
        "meta_mean_motion_ddot": 0.0004513,
        "tle_line1": "1 66860U 25281N   25346.16668980 -.01239221  45130-3 -34335-2 0  9996",
        "tle_line2": "2 66860  43.0018 125.8512 0001786 269.6965 233.5621 15.92937201  1319"
      },
      "geometry": {
        "type": "Point",
        "coordinates": [
          -62.796929997343575,
          6.173576779779206
        ]
      }
    },
    {
      "type": "Feature",
      "properties": {
        "norad_id": 66861,
        "name": "STARLINK-35991",
        "group": "last-30-days",
        "lat": 11.908294755400238,
        "lon": -69.18866004883292,
        "alt_km": 295.34481509199213,
        "timestamp": "2025-12-12T11:38:30.171654+00:00",
        "meta_object_name": "STARLINK-35991",
        "meta_object_id": "2025-281P",
        "meta_epoch": "2025-12-12T04:00:01.998720",
        "meta_mean_motion": 15.92753157,
        "meta_eccentricity": 0.0001711,
        "meta_inclination": 43.0018,
        "meta_ra_of_asc_node": 125.8726,
        "meta_arg_of_pericenter": 274.976,
        "meta_mean_anomaly": 219.9499,
        "meta_ephemeris_type": 0,
        "meta_classification_type": "U",
        "meta_norad_cat_id": 66861,
        "meta_element_set_no": 999,
        "meta_rev_at_epoch": 131,
        "meta_bstar": -0.0034404,
        "meta_mean_motion_dot": -0.0122985,
        "meta_mean_motion_ddot": 0.00044428,
        "tle_line1": "1 66861U 25281P   25346.16668980 -.01229850  44428-3 -34404-2 0  9990",
        "tle_line2": "2 66861  43.0018 125.8726 0001711 274.9760 219.9499 15.92753157  1314"
      },
      "geometry": {
        "type": "Point",
        "coordinates": [
          -69.18866004883292,
          11.908294755400238
        ]
      }
    },
    {
      "type": "Feature",
      "properties": {
        "norad_id": 66862,
        "name": "STARLINK-35974",
        "group": "last-30-days",
        "lat": 13.65018414141707,
        "lon": -71.20886157938564,
        "alt_km": 295.2293984422922,
        "timestamp": "2025-12-12T11:38:30.171664+00:00",
        "meta_object_name": "STARLINK-35974",
        "meta_object_id": "2025-281Q",
        "meta_epoch": "2025-12-12T04:00:01.998720",
        "meta_mean_motion": 15.92700562,
        "meta_eccentricity": 0.000177,
        "meta_inclination": 43.0016,
        "meta_ra_of_asc_node": 125.879,
        "meta_arg_of_pericenter": 271.2735,
        "meta_mean_anomaly": 221.0836,
        "meta_ephemeris_type": 0,
        "meta_classification_type": "U",
        "meta_norad_cat_id": 66862,
        "meta_element_set_no": 999,
        "meta_rev_at_epoch": 130,
        "meta_bstar": -0.0034723,
        "meta_mean_motion_dot": -0.01237753,
        "meta_mean_motion_ddot": 0.00044929,
        "tle_line1": "1 66862U 25281Q   25346.16668980 -.01237753  44929-3 -34723-2 0  9992",
        "tle_line2": "2 66862  43.0016 125.8790 0001770 271.2735 221.0836 15.92700562  1301"
      },
      "geometry": {
        "type": "Point",
        "coordinates": [
          -71.20886157938564,
          13.65018414141707
        ]
      }
    },
    {
      "type": "Feature",
      "properties": {
        "norad_id": 66863,
        "name": "STARLINK-36134",
        "group": "last-30-days",
        "lat": 9.605196920759518,
        "lon": -66.5813520526284,
        "alt_km": 295.3972634849897,
        "timestamp": "2025-12-12T11:38:30.171676+00:00",
        "meta_object_name": "STARLINK-36134",
        "meta_object_id": "2025-281R",
        "meta_epoch": "2025-12-12T04:00:01.998720",
        "meta_mean_motion": 15.9282775,
        "meta_eccentricity": 0.0001641,
        "meta_inclination": 43.0024,
        "meta_ra_of_asc_node": 125.8636,
        "meta_arg_of_pericenter": 273.8931,
        "meta_mean_anomaly": 224.4024,
        "meta_ephemeris_type": 0,
        "meta_classification_type": "U",
        "meta_norad_cat_id": 66863,
        "meta_element_set_no": 999,
        "meta_rev_at_epoch": 131,
        "meta_bstar": -0.0034731,
        "meta_mean_motion_dot": -0.01246209,
        "meta_mean_motion_ddot": 0.00045548,
        "tle_line1": "1 66863U 25281R   25346.16668980 -.01246209  45548-3 -34731-2 0  9996",
        "tle_line2": "2 66863  43.0024 125.8636 0001641 273.8931 224.4024 15.92827750  1319"
      },
      "geometry": {
        "type": "Point",
        "coordinates": [
          -66.5813520526284,
          9.605196920759518
        ]
      }
    },
    {
      "type": "Feature",
      "properties": {
        "norad_id": 66864,
        "name": "STARLINK-36070",
        "group": "last-30-days",
        "lat": 7.954241101819896,
        "lon": -64.74799457900322,
        "alt_km": 295.4847838730411,
        "timestamp": "2025-12-12T11:38:30.171686+00:00",
        "meta_object_name": "STARLINK-36070",
        "meta_object_id": "2025-281S",
        "meta_epoch": "2025-12-12T04:00:01.998720",
        "meta_mean_motion": 15.92887761,
        "meta_eccentricity": 0.0001688,
        "meta_inclination": 43.0021,
        "meta_ra_of_asc_node": 125.8577,
        "meta_arg_of_pericenter": 275.6058,
        "meta_mean_anomaly": 225.0789,
        "meta_ephemeris_type": 0,
        "meta_classification_type": "U",
        "meta_norad_cat_id": 66864,
        "meta_element_set_no": 999,
        "meta_rev_at_epoch": 134,
        "meta_bstar": -0.0034861,
        "meta_mean_motion_dot": -0.01254748,
        "meta_mean_motion_ddot": 0.00046148,
        "tle_line1": "1 66864U 25281S   25346.16668980 -.01254748  46148-3 -34861-2 0  9995",
        "tle_line2": "2 66864  43.0021 125.8577 0001688 275.6058 225.0789 15.92887761  1348"
      },
      "geometry": {
        "type": "Point",
        "coordinates": [
          -64.74799457900322,
          7.954241101819896
        ]
      }
    }
  ]
}